<?xml version="1.0" encoding="UTF-8"?>
<ndm xmlns:xsi="http://www.w3.org/2001/XMLSchema-instance" xsi:noNamespaceSchemaLocation="https://sanaregistry.org/r/ndmxml_unqualified/ndmxml-2.0.0-master-2.0.xsd">
<omm id="CCSDS_OMM_VERS" version="2.0">
<header><CREATION_DATE/><ORIGINATOR/></header><body><segment><metadata><OBJECT_NAME>ONEWEB-0642</OBJECT_NAME><OBJECT_ID>2023-029L</OBJECT_ID><CENTER_NAME>EARTH</CENTER_NAME><REF_FRAME>TEME</REF_FRAME><TIME_SYSTEM>UTC</TIME_SYSTEM><MEAN_ELEMENT_THEORY>SGP4</MEAN_ELEMENT_THEORY></metadata><data><meanElements><EPOCH>2025-10-15T05:02:24.760320</EPOCH><MEAN_MOTION>13.19724060</MEAN_MOTION><ECCENTRICITY>.00023635</ECCENTRICITY><INCLINATION>87.9256</INCLINATION><RA_OF_ASC_NODE>353.7246</RA_OF_ASC_NODE><ARG_OF_PERICENTER>120.8100</ARG_OF_PERICENTER><MEAN_ANOMALY>239.3265</MEAN_ANOMALY></meanElements><tleParameters><EPHEMERIS_TYPE>0</EPHEMERIS_TYPE><CLASSIFICATION_TYPE>U</CLASSIFICATION_TYPE><NORAD_CAT_ID>55806</NORAD_CAT_ID><ELEMENT_SET_NO>999</ELEMENT_SET_NO><REV_AT_EPOCH>12659</REV_AT_EPOCH><BSTAR>.90648499E-4</BSTAR><MEAN_MOTION_DOT>.49E-6</MEAN_MOTION_DOT><MEAN_MOTION_DDOT>0</MEAN_MOTION_DDOT></tleParameters></data></segment></body></omm>
<omm id="CCSDS_OMM_VERS" version="2.0">
<header><CREATION_DATE/><ORIGINATOR/></header><body><segment><metadata><OBJECT_NAME>ONEWEB-0643</OBJECT_NAME><OBJECT_ID>2023-029M</OBJECT_ID><CENTER_NAME>EARTH</CENTER_NAME><REF_FRAME>TEME</REF_FRAME><TIME_SYSTEM>UTC</TIME_SYSTEM><MEAN_ELEMENT_THEORY>SGP4</MEAN_ELEMENT_THEORY></metadata><data><meanElements><EPOCH>2025-10-15T12:02:13.364448</EPOCH><MEAN_MOTION>13.14502577</MEAN_MOTION><ECCENTRICITY>.00024854</ECCENTRICITY><INCLINATION>87.9041</INCLINATION><RA_OF_ASC_NODE>338.4811</RA_OF_ASC_NODE><ARG_OF_PERICENTER>110.7750</ARG_OF_PERICENTER><MEAN_ANOMALY>249.3646</MEAN_ANOMALY></meanElements><tleParameters><EPHEMERIS_TYPE>0</EPHEMERIS_TYPE><CLASSIFICATION_TYPE>U</CLASSIFICATION_TYPE><NORAD_CAT_ID>55807</NORAD_CAT_ID><ELEMENT_SET_NO>999</ELEMENT_SET_NO><REV_AT_EPOCH>12724</REV_AT_EPOCH><BSTAR>-.30012288E-3</BSTAR><MEAN_MOTION_DOT>-.98E-6</MEAN_MOTION_DOT><MEAN_MOTION_DDOT>0</MEAN_MOTION_DDOT></tleParameters></data></segment></body></omm>
<omm id="CCSDS_OMM_VERS" version="2.0">
<header><CREATION_DATE/><ORIGINATOR/></header><body><segment><metadata><OBJECT_NAME>ONEWEB-0644</OBJECT_NAME><OBJECT_ID>2023-029N</OBJECT_ID><CENTER_NAME>EARTH</CENTER_NAME><REF_FRAME>TEME</REF_FRAME><TIME_SYSTEM>UTC</TIME_SYSTEM><MEAN_ELEMENT_THEORY>SGP4</MEAN_ELEMENT_THEORY></metadata><data><meanElements><EPOCH>2025-10-15T04:55:34.701600</EPOCH><MEAN_MOTION>13.19727464</MEAN_MOTION><ECCENTRICITY>.00021211</ECCENTRICITY><INCLINATION>87.9259</INCLINATION><RA_OF_ASC_NODE>353.7343</RA_OF_ASC_NODE><ARG_OF_PERICENTER>113.1802</ARG_OF_PERICENTER><MEAN_ANOMALY>246.9554</MEAN_ANOMALY></meanElements><tleParameters><EPHEMERIS_TYPE>0</EPHEMERIS_TYPE><CLASSIFICATION_TYPE>U</CLASSIFICATION_TYPE><NORAD_CAT_ID>55808</NORAD_CAT_ID><ELEMENT_SET_NO>999</ELEMENT_SET_NO><REV_AT_EPOCH>12659</REV_AT_EPOCH><BSTAR>.69148724E-4</BSTAR><MEAN_MOTION_DOT>.41E-6</MEAN_MOTION_DOT><MEAN_MOTION_DDOT>0</MEAN_MOTION_DDOT></tleParameters></data></segment></body></omm>
<omm id="CCSDS_OMM_VERS" version="2.0">
<header><CREATION_DATE/><ORIGINATOR/></header><body><segment><metadata><OBJECT_NAME>ONEWEB-0645</OBJECT_NAME><OBJECT_ID>2023-029P</OBJECT_ID><CENTER_NAME>EARTH</CENTER_NAME><REF_FRAME>TEME</REF_FRAME><TIME_SYSTEM>UTC</TIME_SYSTEM><MEAN_ELEMENT_THEORY>SGP4</MEAN_ELEMENT_THEORY></metadata><data><meanElements><EPOCH>2025-10-15T04:49:55.360416</EPOCH><MEAN_MOTION>13.19727401</MEAN_MOTION><ECCENTRICITY>.00016753</ECCENTRICITY><INCLINATION>87.9258</INCLINATION><RA_OF_ASC_NODE>353.7190</RA_OF_ASC_NODE><ARG_OF_PERICENTER>116.1697</ARG_OF_PERICENTER><MEAN_ANOMALY>243.9609</MEAN_ANOMALY></meanElements><tleParameters><EPHEMERIS_TYPE>0</EPHEMERIS_TYPE><CLASSIFICATION_TYPE>U</CLASSIFICATION_TYPE><NORAD_CAT_ID>55809</NORAD_CAT_ID><ELEMENT_SET_NO>999</ELEMENT_SET_NO><REV_AT_EPOCH>12659</REV_AT_EPOCH><BSTAR>-.32803734E-4</BSTAR><MEAN_MOTION_DOT>0</MEAN_MOTION_DOT><MEAN_MOTION_DDOT>0</MEAN_MOTION_DDOT></tleParameters></data></segment></body></omm>
<omm id="CCSDS_OMM_VERS" version="2.0">
<header><CREATION_DATE/><ORIGINATOR/></header><body><segment><metadata><OBJECT_NAME>ONEWEB-0646</OBJECT_NAME><OBJECT_ID>2023-029Q</OBJECT_ID><CENTER_NAME>EARTH</CENTER_NAME><REF_FRAME>TEME</REF_FRAME><TIME_SYSTEM>UTC</TIME_SYSTEM><MEAN_ELEMENT_THEORY>SGP4</MEAN_ELEMENT_THEORY></metadata><data><meanElements><EPOCH>2025-10-15T05:52:26.707584</EPOCH><MEAN_MOTION>13.19726945</MEAN_MOTION><ECCENTRICITY>.00020962</ECCENTRICITY><INCLINATION>87.9264</INCLINATION><RA_OF_ASC_NODE>353.7102</RA_OF_ASC_NODE><ARG_OF_PERICENTER>107.4806</ARG_OF_PERICENTER><MEAN_ANOMALY>252.6556</MEAN_ANOMALY></meanElements><tleParameters><EPHEMERIS_TYPE>0</EPHEMERIS_TYPE><CLASSIFICATION_TYPE>U</CLASSIFICATION_TYPE><NORAD_CAT_ID>55810</NORAD_CAT_ID><ELEMENT_SET_NO>999</ELEMENT_SET_NO><REV_AT_EPOCH>12658</REV_AT_EPOCH><BSTAR>-.45248873E-4</BSTAR><MEAN_MOTION_DOT>-.5E-7</MEAN_MOTION_DOT><MEAN_MOTION_DDOT>0</MEAN_MOTION_DDOT></tleParameters></data></segment></body></omm>
<omm id="CCSDS_OMM_VERS" version="2.0">
<header><CREATION_DATE/><ORIGINATOR/></header><body><segment><metadata><OBJECT_NAME>ONEWEB-0648</OBJECT_NAME><OBJECT_ID>2023-029R</OBJECT_ID><CENTER_NAME>EARTH</CENTER_NAME><REF_FRAME>TEME</REF_FRAME><TIME_SYSTEM>UTC</TIME_SYSTEM><MEAN_ELEMENT_THEORY>SGP4</MEAN_ELEMENT_THEORY></metadata><data><meanElements><EPOCH>2025-10-15T13:06:08.564544</EPOCH><MEAN_MOTION>13.14506044</MEAN_MOTION><ECCENTRICITY>.00019296</ECCENTRICITY><INCLINATION>87.9030</INCLINATION><RA_OF_ASC_NODE>338.4378</RA_OF_ASC_NODE><ARG_OF_PERICENTER>128.6489</ARG_OF_PERICENTER><MEAN_ANOMALY>231.4814</MEAN_ANOMALY></meanElements><tleParameters><EPHEMERIS_TYPE>0</EPHEMERIS_TYPE><CLASSIFICATION_TYPE>U</CLASSIFICATION_TYPE><NORAD_CAT_ID>55811</NORAD_CAT_ID><ELEMENT_SET_NO>999</ELEMENT_SET_NO><REV_AT_EPOCH>12725</REV_AT_EPOCH><BSTAR>-.69848888E-3</BSTAR><MEAN_MOTION_DOT>-.246E-5</MEAN_MOTION_DOT><MEAN_MOTION_DDOT>0</MEAN_MOTION_DDOT></tleParameters></data></segment></body></omm>
<omm id="CCSDS_OMM_VERS" version="2.0">
<header><CREATION_DATE/><ORIGINATOR/></header><body><segment><metadata><OBJECT_NAME>ONEWEB-0649</OBJECT_NAME><OBJECT_ID>2023-029S</OBJECT_ID><CENTER_NAME>EARTH</CENTER_NAME><REF_FRAME>TEME</REF_FRAME><TIME_SYSTEM>UTC</TIME_SYSTEM><MEAN_ELEMENT_THEORY>SGP4</MEAN_ELEMENT_THEORY></metadata><data><meanElements><EPOCH>2025-10-15T13:45:33.060384</EPOCH><MEAN_MOTION>13.19724149</MEAN_MOTION><ECCENTRICITY>.00019302</ECCENTRICITY><INCLINATION>87.9265</INCLINATION><RA_OF_ASC_NODE>353.6388</RA_OF_ASC_NODE><ARG_OF_PERICENTER>114.1771</ARG_OF_PERICENTER><MEAN_ANOMALY>245.9563</MEAN_ANOMALY></meanElements><tleParameters><EPHEMERIS_TYPE>0</EPHEMERIS_TYPE><CLASSIFICATION_TYPE>U</CLASSIFICATION_TYPE><NORAD_CAT_ID>55812</NORAD_CAT_ID><ELEMENT_SET_NO>999</ELEMENT_SET_NO><REV_AT_EPOCH>12666</REV_AT_EPOCH><BSTAR>-.17915227E-3</BSTAR><MEAN_MOTION_DOT>-.59E-6</MEAN_MOTION_DOT><MEAN_MOTION_DDOT>0</MEAN_MOTION_DDOT></tleParameters></data></segment></body></omm>
<omm id="CCSDS_OMM_VERS" version="2.0">
<header><CREATION_DATE/><ORIGINATOR/></header><body><segment><metadata><OBJECT_NAME>ONEWEB-0650</OBJECT_NAME><OBJECT_ID>2023-029T</OBJECT_ID><CENTER_NAME>EARTH</CENTER_NAME><REF_FRAME>TEME</REF_FRAME><TIME_SYSTEM>UTC</TIME_SYSTEM><MEAN_ELEMENT_THEORY>SGP4</MEAN_ELEMENT_THEORY></metadata><data><meanElements><EPOCH>2025-10-15T10:00:23.281632</EPOCH><MEAN_MOTION>13.19727194</MEAN_MOTION><ECCENTRICITY>.00019981</ECCENTRICITY><INCLINATION>87.9264</INCLINATION><RA_OF_ASC_NODE>353.6791</RA_OF_ASC_NODE><ARG_OF_PERICENTER>105.4353</ARG_OF_PERICENTER><MEAN_ANOMALY>254.7000</MEAN_ANOMALY></meanElements><tleParameters><EPHEMERIS_TYPE>0</EPHEMERIS_TYPE><CLASSIFICATION_TYPE>U</CLASSIFICATION_TYPE><NORAD_CAT_ID>55813</NORAD_CAT_ID><ELEMENT_SET_NO>999</ELEMENT_SET_NO><REV_AT_EPOCH>12661</REV_AT_EPOCH><BSTAR>-.20889842E-3</BSTAR><MEAN_MOTION_DOT>-.71E-6</MEAN_MOTION_DOT><MEAN_MOTION_DDOT>0</MEAN_MOTION_DDOT></tleParameters></data></segment></body></omm>
<omm id="CCSDS_OMM_VERS" version="2.0">
<header><CREATION_DATE/><ORIGINATOR/></header><body><segment><metadata><OBJECT_NAME>ONEWEB-0652</OBJECT_NAME><OBJECT_ID>2023-029U</OBJECT_ID><CENTER_NAME>EARTH</CENTER_NAME><REF_FRAME>TEME</REF_FRAME><TIME_SYSTEM>UTC</TIME_SYSTEM><MEAN_ELEMENT_THEORY>SGP4</MEAN_ELEMENT_THEORY></metadata><data><meanElements><EPOCH>2025-10-15T14:28:22.181664</EPOCH><MEAN_MOTION>13.14502176</MEAN_MOTION><ECCENTRICITY>.00019433</ECCENTRICITY><INCLINATION>87.9043</INCLINATION><RA_OF_ASC_NODE>338.4452</RA_OF_ASC_NODE><ARG_OF_PERICENTER>92.9779</ARG_OF_PERICENTER><MEAN_ANOMALY>267.1573</MEAN_ANOMALY></meanElements><tleParameters><EPHEMERIS_TYPE>0</EPHEMERIS_TYPE><CLASSIFICATION_TYPE>U</CLASSIFICATION_TYPE><NORAD_CAT_ID>55814</NORAD_CAT_ID><ELEMENT_SET_NO>999</ELEMENT_SET_NO><REV_AT_EPOCH>12723</REV_AT_EPOCH><BSTAR>.39381524E-3</BSTAR><MEAN_MOTION_DOT>.159E-5</MEAN_MOTION_DOT><MEAN_MOTION_DDOT>0</MEAN_MOTION_DDOT></tleParameters></data></segment></body></omm>

</ndm>
